{
  "type": "FeatureCollection",
  "features": [
    {
      "type": "Feature",
      "properties": {
        "norad_id": 34752,
        "name": "COSMOS 2251 DEB",
        "group": "cosmos-2251-debris",
        "lat": 24.283266959890977,
        "lon": 162.9895465727592,
        "alt_km": 539.5535488993401,
        "timestamp": "2025-12-17T17:50:19.645650+00:00",
        "meta_object_name": "COSMOS 2251 DEB",
        "meta_object_id": "1993-036ZW",
        "meta_epoch": "2025-12-17T01:08:57.190560",
        "meta_mean_motion": 15.00027818,
        "meta_eccentricity": 0.00475504,
        "meta_inclination": 74.013,
        "meta_ra_of_asc_node": 351.8362,
        "meta_arg_of_pericenter": 118.7658,
        "meta_mean_anomaly": 241.8317,
        "meta_ephemeris_type": 0,
        "meta_classification_type": "U",
        "meta_norad_cat_id": 34752,
        "meta_element_set_no": 999,
        "meta_rev_at_epoch": 89914,
        "meta_bstar": 0.00071054935,
        "meta_mean_motion_dot": 9.028e-05,
        "meta_mean_motion_ddot": 0,
        "tle_line1": "1 34752U 93036ZW  25351.04788415  .00009028  00000+0  71055-3 0  9994",
        "tle_line2": "2 34752  74.0130 351.8362 0047550 118.7658 241.8317 15.00027818899142"
      },
      "geometry": {
        "type": "Point",
        "coordinates": [
          162.9895465727592,
          24.283266959890977
        ]
      }
    },
    {
      "type": "Feature",
      "properties": {
        "norad_id": 34754,
        "name": "COSMOS 2251 DEB",
        "group": "cosmos-2251-debris",
        "lat": 40.61103077739762,
        "lon": 24.134034236060987,
        "alt_km": 773.6958590743334,
        "timestamp": "2025-12-17T17:50:19.645660+00:00",
        "meta_object_name": "COSMOS 2251 DEB",
        "meta_object_id": "1993-036ZY",
        "meta_epoch": "2025-12-16T16:28:02.583264",
        "meta_mean_motion": 14.40487403,
        "meta_eccentricity": 0.00297202,
        "meta_inclination": 74.0298,
        "meta_ra_of_asc_node": 220.3028,
        "meta_arg_of_pericenter": 335.6347,
        "meta_mean_anomaly": 81.7069,
        "meta_ephemeris_type": 0,
        "meta_classification_type": "U",
        "meta_norad_cat_id": 34754,
        "meta_element_set_no": 999,
        "meta_rev_at_epoch": 88190,
        "meta_bstar": 0.00019019849,
        "meta_mean_motion_dot": 5.81e-06,
        "meta_mean_motion_ddot": 0,
        "tle_line1": "1 34754U 93036ZY  25350.68614101  .00000581  00000+0  19020-3 0  9994",
        "tle_line2": "2 34754  74.0298 220.3028 0029720 335.6347  81.7069 14.40487403881905"
      },
      "geometry": {
        "type": "Point",
        "coordinates": [
          24.134034236060987,
          40.61103077739762
        ]
      }
    },
    {
      "type": "Feature",
      "properties": {
        "norad_id": 34755,
        "name": "COSMOS 2251 DEB",
        "group": "cosmos-2251-debris",
        "lat": 65.25378702142598,
        "lon": -39.29807724267254,
        "alt_km": 1251.5709629888852,
        "timestamp": "2025-12-17T17:50:19.645671+00:00",
        "meta_object_name": "COSMOS 2251 DEB",
        "meta_object_id": "1993-036ZZ",
        "meta_epoch": "2025-12-17T05:50:06.069984",
        "meta_mean_motion": 13.50569003,
        "meta_eccentricity": 0.04081843,
        "meta_inclination": 73.926,
        "meta_ra_of_asc_node": 282.7855,
        "meta_arg_of_pericenter": 301.8273,
        "meta_mean_anomaly": 214.5982,
        "meta_ephemeris_type": 0,
        "meta_classification_type": "U",
        "meta_norad_cat_id": 34755,
        "meta_element_set_no": 999,
        "meta_rev_at_epoch": 82584,
        "meta_bstar": 0.00078980416,
        "meta_mean_motion_dot": 8.28e-06,
        "meta_mean_motion_ddot": 0,
        "tle_line1": "1 34755U 93036ZZ  25351.24312581  .00000828  00000+0  78980-3 0  9999",
        "tle_line2": "2 34755  73.9260 282.7855 0408184 301.8273 214.5982 13.50569003825849"
      },
      "geometry": {
        "type": "Point",
        "coordinates": [
          -39.29807724267254,
          65.25378702142598
        ]
      }
    },
    {
      "type": "Feature",
      "properties": {
        "norad_id": 34756,
        "name": "COSMOS 2251 DEB",
        "group": "cosmos-2251-debris",
        "lat": -73.9930439687991,
        "lon": 6.708682928536389,
        "alt_km": 885.0823733100424,
        "timestamp": "2025-12-17T17:50:19.645681+00:00",
        "meta_object_name": "COSMOS 2251 DEB",
        "meta_object_id": "1993-036AAA",
        "meta_epoch": "2025-12-16T08:53:18.201984",
        "meta_mean_motion": 13.67251835,
        "meta_eccentricity": 0.03452801,
        "meta_inclination": 74.003,
        "meta_ra_of_asc_node": 98.3991,
        "meta_arg_of_pericenter": 333.4281,
        "meta_mean_anomaly": 24.9484,
        "meta_ephemeris_type": 0,
        "meta_classification_type": "U",
        "meta_norad_cat_id": 34756,
        "meta_element_set_no": 999,
        "meta_rev_at_epoch": 83471,
        "meta_bstar": 0.00093292845,
        "meta_mean_motion_dot": 1.159e-05,
        "meta_mean_motion_ddot": 0,
        "tle_line1": "1 34756U 93036AAA 25350.37034956  .00001159  00000+0  93293-3 0  9992",
        "tle_line2": "2 34756  74.0030  98.3991 0345280 333.4281  24.9484 13.67251835834711"
      },
      "geometry": {
        "type": "Point",
        "coordinates": [
          6.708682928536389,
          -73.9930439687991
        ]
      }
    },
    {
      "type": "Feature",
      "properties": {
        "norad_id": 34758,
        "name": "COSMOS 2251 DEB",
        "group": "cosmos-2251-debris",
        "lat": -40.05008015139248,
        "lon": 125.30016207190964,
        "alt_km": 1325.2604067900756,
        "timestamp": "2025-12-17T17:50:19.645692+00:00",
        "meta_object_name": "COSMOS 2251 DEB",
        "meta_object_id": "1993-036AAC",
        "meta_epoch": "2025-12-17T06:09:51.620544",
        "meta_mean_motion": 13.58084731,
        "meta_eccentricity": 0.03816404,
        "meta_inclination": 74.1075,
        "meta_ra_of_asc_node": 292.2273,
        "meta_arg_of_pericenter": 54.8808,
        "meta_mean_anomaly": 308.7451,
        "meta_ephemeris_type": 0,
        "meta_classification_type": "U",
        "meta_norad_cat_id": 34758,
        "meta_element_set_no": 999,
        "meta_rev_at_epoch": 82971,
        "meta_bstar": 0.001447828,
        "meta_mean_motion_dot": 1.667e-05,
        "meta_mean_motion_ddot": 0,
        "tle_line1": "1 34758U 93036AAC 25351.25684746  .00001667  00000+0  14478-2 0  9991",
        "tle_line2": "2 34758  74.1075 292.2273 0381640  54.8808 308.7451 13.58084731829710"
      },
      "geometry": {
        "type": "Point",
        "coordinates": [
          125.30016207190964,
          -40.05008015139248
        ]
      }
    },
    {
      "type": "Feature",
      "properties": {
        "norad_id": 34760,
        "name": "COSMOS 2251 DEB",
        "group": "cosmos-2251-debris",
        "lat": 39.46778819957962,
        "lon": 99.82453081969577,
        "alt_km": 886.0933303417114,
        "timestamp": "2025-12-17T17:50:19.645702+00:00",
        "meta_object_name": "COSMOS 2251 DEB",
        "meta_object_id": "1993-036AAE",
        "meta_epoch": "2025-12-15T15:17:34.568160",
        "meta_mean_motion": 14.19579445,
        "meta_eccentricity": 0.00969523,
        "meta_inclination": 74.0638,
        "meta_ra_of_asc_node": 297.1884,
        "meta_arg_of_pericenter": 348.6722,
        "meta_mean_anomaly": 190.5489,
        "meta_ephemeris_type": 0,
        "meta_classification_type": "U",
        "meta_norad_cat_id": 34760,
        "meta_element_set_no": 999,
        "meta_rev_at_epoch": 86729,
        "meta_bstar": 0.00062937679,
        "meta_mean_motion_dot": 1.367e-05,
        "meta_mean_motion_ddot": 0,
        "tle_line1": "1 34760U 93036AAE 25349.63720565  .00001367  00000+0  62938-3 0  9995",
        "tle_line2": "2 34760  74.0638 297.1884 0096952 348.6722 190.5489 14.19579445867299"
      },
      "geometry": {
        "type": "Point",
        "coordinates": [
          99.82453081969577,
          39.46778819957962
        ]
      }
    },
    {
      "type": "Feature",
      "properties": {
        "norad_id": 34761,
        "name": "COSMOS 2251 DEB",
        "group": "cosmos-2251-debris",
        "lat": 29.278054081581637,
        "lon": 2.8109823506663147,
        "alt_km": 737.0347053026144,
        "timestamp": "2025-12-17T17:50:19.645712+00:00",
        "meta_object_name": "COSMOS 2251 DEB",
        "meta_object_id": "1993-036AAF",
        "meta_epoch": "2025-12-16T18:19:26.421600",
        "meta_mean_motion": 14.38063879,
        "meta_eccentricity": 0.00366118,
        "meta_inclination": 74.0292,
        "meta_ra_of_asc_node": 355.3761,
        "meta_arg_of_pericenter": 28.2652,
        "meta_mean_anomaly": 332.0478,
        "meta_ephemeris_type": 0,
        "meta_classification_type": "U",
        "meta_norad_cat_id": 34761,
        "meta_element_set_no": 999,
        "meta_rev_at_epoch": 87707,
        "meta_bstar": 0.00049629048,
        "meta_mean_motion_dot": 1.489e-05,
        "meta_mean_motion_ddot": 0,
        "tle_line1": "1 34761U 93036AAF 25350.76350025  .00001489  00000+0  49629-3 0  9999",
        "tle_line2": "2 34761  74.0292 355.3761 0036611  28.2652 332.0478 14.38063879877074"
      },
      "geometry": {
        "type": "Point",
        "coordinates": [
          2.8109823506663147,
          29.278054081581637
        ]
      }
    }
  ]
}